PHISAT 2                
1 60470U 24149C   26068.78834181  .00008925  00000+0  31421-3 0  9996
2 60470  97.3806 148.6498 0001175 168.6230 191.5037 15.29548631 86792
STARLINK-34661          
1 64927U 25157Z   26068.17691286  .00036990  00000+0  12554-2 0  9995
2 64927  53.1605 348.1565 0000850 103.4154 256.6942 15.30185177 35766
