[{"OBJECT_NAME":"PHISAT 2","OBJECT_ID":"2024-149C","EPOCH":"2026-03-09T18:55:12.732384","MEAN_MOTION":15.29548632,"ECCENTRICITY":0.00011753,"INCLINATION":97.3806,"RA_OF_ASC_NODE":148.6498,"ARG_OF_PERICENTER":168.623,"MEAN_ANOMALY":191.5037,"EPHEMERIS_TYPE":0,"CLASSIFICATION_TYPE":"U","NORAD_CAT_ID":60470,"ELEMENT_SET_NO":999,"REV_AT_EPOCH":8679,"BSTAR":0.00031420974,"MEAN_MOTION_DOT":8.925e-5,"MEAN_MOTION_DDOT":0},{"OBJECT_NAME":"STARLINK-34661","OBJECT_ID":"2025-157Z","EPOCH":"2026-03-09T04:14:45.271104","MEAN_MOTION":15.30185177,"ECCENTRICITY":8.509e-5,"INCLINATION":53.1605,"RA_OF_ASC_NODE":348.1565,"ARG_OF_PERICENTER":103.4154,"MEAN_ANOMALY":256.6942,"EPHEMERIS_TYPE":0,"CLASSIFICATION_TYPE":"U","NORAD_CAT_ID":64927,"ELEMENT_SET_NO":999,"REV_AT_EPOCH":3576,"BSTAR":0.0012553914,"MEAN_MOTION_DOT":0.0003699,"MEAN_MOTION_DDOT":0}]
